GLOBALSTAR M068         
1 32266U 07048D   25226.71184319 -.00000092  00000+0  67005-4 0  9992
2 32266  51.9881 123.8538 0000557 302.4015  76.3209 12.62826426824959
GLOBALSTAR M079         
1 37188U 10054A   25226.52500057 -.00000084  00000+0  11134-3 0  9993
2 37188  52.0061 322.1990 0000837  96.7256 276.7429 12.62265908683827
GLOBALSTAR M074         
1 37189U 10054B   25226.74363020 -.00000088  00000+0  85394-4 0  9999
2 37189  52.0032 320.8484 0000753 114.0820  51.8341 12.62270142684458
GLOBALSTAR M076         
1 37190U 10054C   25226.68660090 -.00000088  00000+0  89323-4 0  9997
2 37190  52.0050 321.1976 0000913 109.5553  37.6836 12.62264424684165
GLOBALSTAR M077         
1 37191U 10054D   25226.40535913 -.00000094  00000+0  55532-4 0  9995
2 37191  52.0067 278.9220 0000447 122.1868 250.6148 12.62322807684508
GLOBALSTAR M075         
1 37192U 10054E   25226.86175380 -.00000086  00000+0  10151-3 0  9992
2 37192  51.9976   2.8864 0000778  97.7738  66.2010 12.62266652683259
GLOBALSTAR M073         
1 37193U 10054F   25226.62408265 -.00000088  00000+0  90388-4 0  9991
2 37193  52.0055 277.4760 0000572 108.0478  55.7118 12.62261834685211
GLOBALSTAR M083         
1 37739U 11033A   25226.39647108 -.00000107  00000+0 -17445-4 0  9996
2 37739  51.9840 226.8202 0000299  61.4766  85.9336 12.62275007654203
GLOBALSTAR M088         
1 37740U 11033B   25226.73979439 -.00000082  00000+0  11997-3 0  9997
2 37740  52.0210 131.4571 0000524  45.8837 343.1855 12.62267156649793
GLOBALSTAR M091         
1 37741U 11033C   25226.67481481 -.00000105  00000+0 -74361-5 0  9999
2 37741  51.9994  95.0714 0000825  48.2760 346.4218 12.62269687650579
GLOBALSTAR M085         
1 37742U 11033D   25226.92463221 -.00000113  00000+0 -53401-4 0  9990
2 37742  52.0133  45.3342 0000894  67.1916  83.4069 12.62263976651119
GLOBALSTAR M081         
1 37743U 11033E   25226.24319072 -.00000108  00000+0 -23552-4 0  9998
2 37743  51.9964  50.1959 0001013  76.0199  95.1234 12.62267555651171
GLOBALSTAR M089         
1 37744U 11033F   25226.64371771 -.00000102  00000+0  88632-5 0  9991
2 37744  51.9954   3.1925 0000914 114.0543 259.0504 12.62265666652079
GLOBALSTAR M084         
1 38040U 11080A   25226.19639926 -.00000104  00000+0  13865-5 0  9990
2 38040  51.9982 231.8748 0000466 137.2668 301.5377 12.62267937629999
GLOBALSTAR M080         
1 38041U 11080B   25226.42064475 -.00000094  00000+0  56687-4 0  9994
2 38041  52.0035 232.8049 0000272 311.1649 196.3994 12.62268267630144
GLOBALSTAR M082         
1 38042U 11080C   25226.67880434 -.00000095  00000+0  47298-4 0  9992
2 38042  52.0057 187.4837 0000499 355.5517 176.6406 12.62267828630888
GLOBALSTAR M092         
1 38043U 11080D   25226.45943678 -.00000093  00000+0  58113-4 0  9995
2 38043  52.0079 278.5355 0000407 125.4470 248.8694 12.62265715629311
GLOBALSTAR M090         
1 38044U 11080E   25226.91325646 -.00000087  00000+0  95560-4 0  9996
2 38044  52.0106 180.6255 0000478  39.1567 359.3984 12.62261611631034
GLOBALSTAR M086         
1 38045U 11080F   25226.86086251 -.00000087  00000+0  94475-4 0  9991
2 38045  51.9881 181.2128 0001406  84.9647 317.9399 12.62275980630974
GLOBALSTAR M097         
1 39072U 13005A   25226.00732352 -.00000100  00000+0  23100-4 0  9990
2 39072  52.0044  98.4208 0000880  62.1920 297.9036 12.62265580578110
GLOBALSTAR M093         
1 39073U 13005B   25226.53550608 -.00000098  00000+0  34055-4 0  9998
2 39073  52.0103  90.0418 0001110  55.4191 304.6781 12.62225857578138
GLOBALSTAR M094         
1 39074U 13005C   25226.69382882 -.00000106  00000+0 -14901-4 0  9992
2 39074  51.9981   3.9815 0000950  83.3241 276.7734 12.62263072579760
GLOBALSTAR M096         
1 39075U 13005D   25226.46934452 -.00000111  00000+0 -40587-4 0  9999
2 39075  52.0078  53.2240 0000966  66.4595 293.6374 12.62266194578654
GLOBALSTAR M078         
1 39076U 13005E   25226.75986312  .00000011  00000+0  63852-3 0  9990
2 39076  51.9869 136.7722 0000826 347.0247  13.0598 12.62261392577319
GLOBALSTAR M095         
1 39077U 13005F   25226.78580591 -.00000085  00000+0  10266-3 0  9996
2 39077  52.0077 133.8612 0000910  24.1617 335.9293 12.62259160577179
GLOBALSTAR M087         
1 52888U 22064A   25226.32569730 -.00000098  00000+0  33863-4 0  9991
2 52888  51.9989 276.6909 0000317  89.5636 270.5267 12.62300885152384
